<?xml version="1.0" encoding="UTF-8"?>
<ndm xmlns:xsi="http://www.w3.org/2001/XMLSchema-instance" xsi:noNamespaceSchemaLocation="https://sanaregistry.org/r/ndmxml_unqualified/ndmxml-2.0.0-master-2.0.xsd">
<omm id="CCSDS_OMM_VERS" version="2.0">
<header><CREATION_DATE/><ORIGINATOR/></header><body><segment><metadata><OBJECT_NAME>ONEWEB-0037</OBJECT_NAME><OBJECT_ID>2020-020S</OBJECT_ID><CENTER_NAME>EARTH</CENTER_NAME><REF_FRAME>TEME</REF_FRAME><TIME_SYSTEM>UTC</TIME_SYSTEM><MEAN_ELEMENT_THEORY>SGP4</MEAN_ELEMENT_THEORY></metadata><data><meanElements><EPOCH>2024-11-03T19:21:08.346240</EPOCH><MEAN_MOTION>13.11418501</MEAN_MOTION><ECCENTRICITY>.0001406</ECCENTRICITY><INCLINATION>87.8898</INCLINATION><RA_OF_ASC_NODE>138.6349</RA_OF_ASC_NODE><ARG_OF_PERICENTER>88.0458</ARG_OF_PERICENTER><MEAN_ANOMALY>272.0831</MEAN_ANOMALY></meanElements><tleParameters><EPHEMERIS_TYPE>0</EPHEMERIS_TYPE><CLASSIFICATION_TYPE>U</CLASSIFICATION_TYPE><NORAD_CAT_ID>45440</NORAD_CAT_ID><ELEMENT_SET_NO>999</ELEMENT_SET_NO><REV_AT_EPOCH>22531</REV_AT_EPOCH><BSTAR>-.28098E-2</BSTAR><MEAN_MOTION_DOT>-.983E-5</MEAN_MOTION_DOT><MEAN_MOTION_DDOT>0</MEAN_MOTION_DDOT></tleParameters></data></segment></body></omm>
<omm id="CCSDS_OMM_VERS" version="2.0">
<header><CREATION_DATE/><ORIGINATOR/></header><body><segment><metadata><OBJECT_NAME>ONEWEB-0042</OBJECT_NAME><OBJECT_ID>2020-020T</OBJECT_ID><CENTER_NAME>EARTH</CENTER_NAME><REF_FRAME>TEME</REF_FRAME><TIME_SYSTEM>UTC</TIME_SYSTEM><MEAN_ELEMENT_THEORY>SGP4</MEAN_ELEMENT_THEORY></metadata><data><meanElements><EPOCH>2024-11-03T21:23:04.238592</EPOCH><MEAN_MOTION>13.11419295</MEAN_MOTION><ECCENTRICITY>.0001534</ECCENTRICITY><INCLINATION>87.8896</INCLINATION><RA_OF_ASC_NODE>138.6551</RA_OF_ASC_NODE><ARG_OF_PERICENTER>84.8295</ARG_OF_PERICENTER><MEAN_ANOMALY>275.3008</MEAN_ANOMALY></meanElements><tleParameters><EPHEMERIS_TYPE>0</EPHEMERIS_TYPE><CLASSIFICATION_TYPE>U</CLASSIFICATION_TYPE><NORAD_CAT_ID>45441</NORAD_CAT_ID><ELEMENT_SET_NO>999</ELEMENT_SET_NO><REV_AT_EPOCH>22529</REV_AT_EPOCH><BSTAR>-.1066E-3</BSTAR><MEAN_MOTION_DOT>-.25E-6</MEAN_MOTION_DOT><MEAN_MOTION_DDOT>0</MEAN_MOTION_DDOT></tleParameters></data></segment></body></omm>
<omm id="CCSDS_OMM_VERS" version="2.0">
<header><CREATION_DATE/><ORIGINATOR/></header><body><segment><metadata><OBJECT_NAME>ONEWEB-0098</OBJECT_NAME><OBJECT_ID>2020-020U</OBJECT_ID><CENTER_NAME>EARTH</CENTER_NAME><REF_FRAME>TEME</REF_FRAME><TIME_SYSTEM>UTC</TIME_SYSTEM><MEAN_ELEMENT_THEORY>SGP4</MEAN_ELEMENT_THEORY></metadata><data><meanElements><EPOCH>2024-11-03T19:23:36.750336</EPOCH><MEAN_MOTION>13.11417659</MEAN_MOTION><ECCENTRICITY>.0001479</ECCENTRICITY><INCLINATION>87.8895</INCLINATION><RA_OF_ASC_NODE>138.6813</RA_OF_ASC_NODE><ARG_OF_PERICENTER>73.0750</ARG_OF_PERICENTER><MEAN_ANOMALY>287.0540</MEAN_ANOMALY></meanElements><tleParameters><EPHEMERIS_TYPE>0</EPHEMERIS_TYPE><CLASSIFICATION_TYPE>U</CLASSIFICATION_TYPE><NORAD_CAT_ID>45442</NORAD_CAT_ID><ELEMENT_SET_NO>999</ELEMENT_SET_NO><REV_AT_EPOCH>22526</REV_AT_EPOCH><BSTAR>-.64976E-3</BSTAR><MEAN_MOTION_DOT>-.218E-5</MEAN_MOTION_DOT><MEAN_MOTION_DDOT>0</MEAN_MOTION_DDOT></tleParameters></data></segment></body></omm>
<omm id="CCSDS_OMM_VERS" version="2.0">
<header><CREATION_DATE/><ORIGINATOR/></header><body><segment><metadata><OBJECT_NAME>ONEWEB-0055</OBJECT_NAME><OBJECT_ID>2020-020V</OBJECT_ID><CENTER_NAME>EARTH</CENTER_NAME><REF_FRAME>TEME</REF_FRAME><TIME_SYSTEM>UTC</TIME_SYSTEM><MEAN_ELEMENT_THEORY>SGP4</MEAN_ELEMENT_THEORY></metadata><data><meanElements><EPOCH>2024-11-03T19:02:50.656704</EPOCH><MEAN_MOTION>13.11417378</MEAN_MOTION><ECCENTRICITY>.000153</ECCENTRICITY><INCLINATION>87.8876</INCLINATION><RA_OF_ASC_NODE>138.6846</RA_OF_ASC_NODE><ARG_OF_PERICENTER>81.5854</ARG_OF_PERICENTER><MEAN_ANOMALY>278.5448</MEAN_ANOMALY></meanElements><tleParameters><EPHEMERIS_TYPE>0</EPHEMERIS_TYPE><CLASSIFICATION_TYPE>U</CLASSIFICATION_TYPE><NORAD_CAT_ID>45443</NORAD_CAT_ID><ELEMENT_SET_NO>999</ELEMENT_SET_NO><REV_AT_EPOCH>22523</REV_AT_EPOCH><BSTAR>-.16177E-2</BSTAR><MEAN_MOTION_DOT>-.561E-5</MEAN_MOTION_DOT><MEAN_MOTION_DDOT>0</MEAN_MOTION_DDOT></tleParameters></data></segment></body></omm>
<omm id="CCSDS_OMM_VERS" version="2.0">
<header><CREATION_DATE/><ORIGINATOR/></header><body><segment><metadata><OBJECT_NAME>ONEWEB-0093</OBJECT_NAME><OBJECT_ID>2020-020W</OBJECT_ID><CENTER_NAME>EARTH</CENTER_NAME><REF_FRAME>TEME</REF_FRAME><TIME_SYSTEM>UTC</TIME_SYSTEM><MEAN_ELEMENT_THEORY>SGP4</MEAN_ELEMENT_THEORY></metadata><data><meanElements><EPOCH>2024-11-03T22:07:11.934624</EPOCH><MEAN_MOTION>13.11416041</MEAN_MOTION><ECCENTRICITY>.0001781</ECCENTRICITY><INCLINATION>87.8889</INCLINATION><RA_OF_ASC_NODE>138.6433</RA_OF_ASC_NODE><ARG_OF_PERICENTER>82.1648</ARG_OF_PERICENTER><MEAN_ANOMALY>277.9682</MEAN_ANOMALY></meanElements><tleParameters><EPHEMERIS_TYPE>0</EPHEMERIS_TYPE><CLASSIFICATION_TYPE>U</CLASSIFICATION_TYPE><NORAD_CAT_ID>45444</NORAD_CAT_ID><ELEMENT_SET_NO>999</ELEMENT_SET_NO><REV_AT_EPOCH>22531</REV_AT_EPOCH><BSTAR>.10938E-2</BSTAR><MEAN_MOTION_DOT>.4E-5</MEAN_MOTION_DOT><MEAN_MOTION_DDOT>0</MEAN_MOTION_DDOT></tleParameters></data></segment></body></omm>
<omm id="CCSDS_OMM_VERS" version="2.0">
<header><CREATION_DATE/><ORIGINATOR/></header><body><segment><metadata><OBJECT_NAME>ONEWEB-0029</OBJECT_NAME><OBJECT_ID>2020-020X</OBJECT_ID><CENTER_NAME>EARTH</CENTER_NAME><REF_FRAME>TEME</REF_FRAME><TIME_SYSTEM>UTC</TIME_SYSTEM><MEAN_ELEMENT_THEORY>SGP4</MEAN_ELEMENT_THEORY></metadata><data><meanElements><EPOCH>2024-11-03T22:34:02.173152</EPOCH><MEAN_MOTION>13.11418546</MEAN_MOTION><ECCENTRICITY>.0001673</ECCENTRICITY><INCLINATION>87.8891</INCLINATION><RA_OF_ASC_NODE>138.6531</RA_OF_ASC_NODE><ARG_OF_PERICENTER>90.1610</ARG_OF_PERICENTER><MEAN_ANOMALY>269.9709</MEAN_ANOMALY></meanElements><tleParameters><EPHEMERIS_TYPE>0</EPHEMERIS_TYPE><CLASSIFICATION_TYPE>U</CLASSIFICATION_TYPE><NORAD_CAT_ID>45445</NORAD_CAT_ID><ELEMENT_SET_NO>999</ELEMENT_SET_NO><REV_AT_EPOCH>22529</REV_AT_EPOCH><BSTAR>-.10091E-2</BSTAR><MEAN_MOTION_DOT>-.345E-5</MEAN_MOTION_DOT><MEAN_MOTION_DDOT>0</MEAN_MOTION_DDOT></tleParameters></data></segment></body></omm>
<omm id="CCSDS_OMM_VERS" version="2.0">
<header><CREATION_DATE/><ORIGINATOR/></header><body><segment><metadata><OBJECT_NAME>ONEWEB-0068</OBJECT_NAME><OBJECT_ID>2020-020Y</OBJECT_ID><CENTER_NAME>EARTH</CENTER_NAME><REF_FRAME>TEME</REF_FRAME><TIME_SYSTEM>UTC</TIME_SYSTEM><MEAN_ELEMENT_THEORY>SGP4</MEAN_ELEMENT_THEORY></metadata><data><meanElements><EPOCH>2024-11-03T21:58:38.456832</EPOCH><MEAN_MOTION>13.11414977</MEAN_MOTION><ECCENTRICITY>.000169</ECCENTRICITY><INCLINATION>87.8888</INCLINATION><RA_OF_ASC_NODE>138.6436</RA_OF_ASC_NODE><ARG_OF_PERICENTER>87.6442</ARG_OF_PERICENTER><MEAN_ANOMALY>272.4879</MEAN_ANOMALY></meanElements><tleParameters><EPHEMERIS_TYPE>0</EPHEMERIS_TYPE><CLASSIFICATION_TYPE>U</CLASSIFICATION_TYPE><NORAD_CAT_ID>45446</NORAD_CAT_ID><ELEMENT_SET_NO>999</ELEMENT_SET_NO><REV_AT_EPOCH>22523</REV_AT_EPOCH><BSTAR>.16702E-2</BSTAR><MEAN_MOTION_DOT>.605E-5</MEAN_MOTION_DOT><MEAN_MOTION_DDOT>0</MEAN_MOTION_DDOT></tleParameters></data></segment></body></omm>
<omm id="CCSDS_OMM_VERS" version="2.0">
<header><CREATION_DATE/><ORIGINATOR/></header><body><segment><metadata><OBJECT_NAME>ONEWEB-0046</OBJECT_NAME><OBJECT_ID>2020-020Z</OBJECT_ID><CENTER_NAME>EARTH</CENTER_NAME><REF_FRAME>TEME</REF_FRAME><TIME_SYSTEM>UTC</TIME_SYSTEM><MEAN_ELEMENT_THEORY>SGP4</MEAN_ELEMENT_THEORY></metadata><data><meanElements><EPOCH>2024-11-03T21:54:59.681664</EPOCH><MEAN_MOTION>13.11418031</MEAN_MOTION><ECCENTRICITY>.0001479</ECCENTRICITY><INCLINATION>87.8888</INCLINATION><RA_OF_ASC_NODE>138.6560</RA_OF_ASC_NODE><ARG_OF_PERICENTER>97.0632</ARG_OF_PERICENTER><MEAN_ANOMALY>263.0664</MEAN_ANOMALY></meanElements><tleParameters><EPHEMERIS_TYPE>0</EPHEMERIS_TYPE><CLASSIFICATION_TYPE>U</CLASSIFICATION_TYPE><NORAD_CAT_ID>45447</NORAD_CAT_ID><ELEMENT_SET_NO>999</ELEMENT_SET_NO><REV_AT_EPOCH>22524</REV_AT_EPOCH><BSTAR>.18172E-2</BSTAR><MEAN_MOTION_DOT>.657E-5</MEAN_MOTION_DOT><MEAN_MOTION_DDOT>0</MEAN_MOTION_DDOT></tleParameters></data></segment></body></omm>
<omm id="CCSDS_OMM_VERS" version="2.0">
<header><CREATION_DATE/><ORIGINATOR/></header><body><segment><metadata><OBJECT_NAME>ONEWEB-0063</OBJECT_NAME><OBJECT_ID>2020-020AA</OBJECT_ID><CENTER_NAME>EARTH</CENTER_NAME><REF_FRAME>TEME</REF_FRAME><TIME_SYSTEM>UTC</TIME_SYSTEM><MEAN_ELEMENT_THEORY>SGP4</MEAN_ELEMENT_THEORY></metadata><data><meanElements><EPOCH>2024-11-03T22:36:29.097216</EPOCH><MEAN_MOTION>13.11416481</MEAN_MOTION><ECCENTRICITY>.0001316</ECCENTRICITY><INCLINATION>87.8888</INCLINATION><RA_OF_ASC_NODE>138.6501</RA_OF_ASC_NODE><ARG_OF_PERICENTER>93.6108</ARG_OF_PERICENTER><MEAN_ANOMALY>266.5170</MEAN_ANOMALY></meanElements><tleParameters><EPHEMERIS_TYPE>0</EPHEMERIS_TYPE><CLASSIFICATION_TYPE>U</CLASSIFICATION_TYPE><NORAD_CAT_ID>45448</NORAD_CAT_ID><ELEMENT_SET_NO>999</ELEMENT_SET_NO><REV_AT_EPOCH>22533</REV_AT_EPOCH><BSTAR>-.12992E-2</BSTAR><MEAN_MOTION_DOT>-.448E-5</MEAN_MOTION_DOT><MEAN_MOTION_DDOT>0</MEAN_MOTION_DDOT></tleParameters></data></segment></body></omm>

</ndm>
